[{"OBJECT_NAME":"QIANFAN-34","OBJECT_ID":"2024-185R","EPOCH":"2026-03-09T23:48:13.151232","MEAN_MOTION":14.02387814,"ECCENTRICITY":0.00081871,"INCLINATION":88.9718,"RA_OF_ASC_NODE":68.5076,"ARG_OF_PERICENTER":66.0949,"MEAN_ANOMALY":294.1088,"EPHEMERIS_TYPE":0,"CLASSIFICATION_TYPE":"U","NORAD_CAT_ID":61567,"ELEMENT_SET_NO":999,"REV_AT_EPOCH":8158,"BSTAR":0.00037025397,"MEAN_MOTION_DOT":5.82e-6,"MEAN_MOTION_DDOT":0},{"OBJECT_NAME":"SL-3 R\/B","OBJECT_ID":"1982-116B","EPOCH":"2026-03-09T15:13:20.537472","MEAN_MOTION":14.15177969,"ECCENTRICITY":0.0070173,"INCLINATION":81.2527,"RA_OF_ASC_NODE":117.0396,"ARG_OF_PERICENTER":257.9074,"MEAN_ANOMALY":222.4534,"EPHEMERIS_TYPE":0,"CLASSIFICATION_TYPE":"U","NORAD_CAT_ID":13719,"ELEMENT_SET_NO":999,"REV_AT_EPOCH":23105,"BSTAR":4.5939e-5,"MEAN_MOTION_DOT":1.03e-6,"MEAN_MOTION_DDOT":0}]
